{
  "norad_id": 56358,
  "name": "STARLINK-5482",
  "history": [
    {
      "epoch": "2026-03-28T20:00:01.999872",
      "apogee_km": 551.0841467916898,
      "perigee_km": 548.1204599177145,
      "latitude_deg": -65.41784049111621,
      "longitude_deg": -104.19777791993693,
      "semi_major_axis_km": 6927.739303354701,
      "eccentricity": 0.0002139,
      "inclination_deg": 97.6037,
      "raan_deg": 89.0371,
      "arg_perigee_deg": 75.6995,
      "mean_anomaly_deg": 76.1768,
      "mean_motion_rev_day": 15.05620285
    },
    {
      "epoch": "2026-03-29T00:00:01.999296",
      "apogee_km": 551.0353158863581,
      "perigee_km": 548.0065438394231,
      "latitude_deg": 33.36047865609145,
      "longitude_deg": -88.19777855998836,
      "semi_major_axis_km": 6927.65792986289,
      "eccentricity": 0.0002186,
      "inclination_deg": 97.6034,
      "raan_deg": 89.2015,
      "arg_perigee_deg": 74.9212,
      "mean_anomaly_deg": 259.7625,
      "mean_motion_rev_day": 15.05646813
    }
  ]
}